IRIDIUM 157             
1 43251U 18030C   25216.57666022  .00000019  00000+0 -39635-6 0  9999
2 43251  86.3919  62.7782 0002219  85.0058 275.1391 14.34217575384759
IRIDIUM 140             
1 43252U 18030D   25216.80499302  .00000029  00000+0  34169-5 0  9997
2 43252  86.3921  62.6962 0001996  90.7572 269.3853 14.34217574384844
IRIDIUM 145             
1 43253U 18030E   25216.58300238  .00000028  00000+0  28193-5 0  9991
2 43253  86.3920  62.7619 0002083  99.4808 260.6623 14.34217594384740
IRIDIUM 146             
1 43254U 18030F   25216.56397420  .00000008  00000+0 -43482-5 0  9996
2 43254  86.3919  62.7832 0001956  98.6412 261.5006 14.34217552384756
IRIDIUM 148             
1 43255U 18030G   25216.81133607  .00000015  00000+0 -18178-5 0  9992
2 43255  86.3920  62.7178 0002187  90.1725 269.9721 14.34217550384836
IRIDIUM 142             
1 43256U 18030H   25216.57031735  .00000033  00000+0  48754-5 0  9997
2 43256  86.3918  62.7194 0002161 101.8450 258.2988 14.34217620384754
IRIDIUM 150             
1 43257U 18030J   25216.11999288  .00000027  00000+0  25989-5 0  9992
2 43257  86.3922  63.0139 0002003  94.3244 265.8180 14.34217630384710
IRIDIUM 143             
1 43258U 18030K   25216.86841915  .00000029  00000+0  34530-5 0  9992
2 43258  86.3925  62.7809 0002063 101.3830 258.7597 14.34217506384782
GAOFEN-1 02             
1 43259U 18031A   25216.87901754  .00000722  00000+0  11044-3 0  9996
2 43259  97.7691 276.0885 0003891 304.7728  55.3116 14.76591592396022
GAOFEN-1 03             
1 43260U 18031B   25216.85718931  .00000741  00000+0  11310-3 0  9996
2 43260  97.7685 275.9573 0005138 347.0235  13.0843 14.76622439396010
GAOFEN-1 04             
1 43262U 18031D   25216.83276576  .00000766  00000+0  11657-3 0  9991
2 43262  97.7695 276.0872 0001907  10.8082 349.3169 14.76629700396005
SUPERBIRD-B3            
1 43271U 18033A   25216.79158865 -.00000083  00000+0  00000+0 0  9997
2 43271   0.0491 258.9087 0001412 254.0843 247.5486  1.00272287 26863
HYLAS 4                 
1 43272U 18033B   25216.88239355 -.00000225  00000+0  00000+0 0  9990
2 43272   0.0656 260.4175 0001155 234.6604 102.7124  1.00271792 26890
YAOGAN-31 01A           
1 43275U 18034A   25216.88419023 -.00000029  00000+0  85610-4 0  9993
2 43275  63.3951 184.9789 0247157   6.4064 354.0025 13.45414832359654
YAOGAN-31 01B           
1 43276U 18034B   25216.88454295 -.00000026  00000+0  90471-4 0  9992
2 43276  63.3953 184.9733 0247174   6.3705 354.0366 13.45412392359664
YAOGAN-31 01C           
1 43277U 18034C   25216.88434125 -.00000044  00000+0  64991-4 0  9991
2 43277  63.3962 184.2970 0247365   6.1522 354.2446 13.45405771359684
WEINA 1B                
1 43279U 18034E   25216.87966459 -.00000040  00000+0  71397-4 0  9996
2 43279  63.3956 185.4490 0247094   6.9057 353.5271 13.45336936359650
IRNSS-1I                
1 43286U 18035A   25216.19925527  .00000071  00000+0  00000+0 0  9992
2 43286  28.8335  79.1349 0018722 176.7880 183.9629  1.00270321 26905
USA 283                 
1 43339U 18036A   25214.43058424 -.00000308  00000+0  00000+0 0  9994
2 43339   0.0180  82.7784 0000172 111.0095  46.5915  1.00270413 22097
COSMOS 2526             
1 43432U 18037A   25216.78482861 -.00000336  00000+0  00000+0 0  9996
2 43432   0.0278 102.6859 0000944 156.9082 104.5876  1.00274038 26794
TESS                    
1 43435U 18038A   25206.79310809 -.00002333  00000+0  00000+0 0  9991
2 43435  56.2540  48.6741 4645845  92.2651   5.8154  0.07761537  1318
SENTINEL-3B             
1 43437U 18039A   25216.20260248  .00000102  00000+0  60233-4 0  9992
2 43437  98.6274 283.2538 0001705 106.0276 254.1092 14.26736442378926
ZHUHAI-1 OVS-02         
1 43440U 18040B   25216.86334144  .00005759  00000+0  27080-3 0  9992
2 43440  97.0703 248.3895 0002276 315.2517  44.8535 15.19933983404584
ZHUHAI-1 OHS-02         
1 43441U 18040C   25216.84029308  .00009173  00000+0  34345-3 0  9990
2 43441  97.0756 253.5209 0010537 287.3585  72.6502 15.27447478404652
USA 285                 
1 43445U 18036E   25212.93030632 -.00000015  00000+0  00000+0 0  9991
2 43445   6.3332  70.7931 0010768 155.6888 200.1558  1.02112319 23667
USA 286                 
1 43446U 18036F   25216.44349418 -.00000143  00000+0  00000+0 0  9999
2 43446   6.3383  70.7173 0010477 153.1368 121.4413  1.02122903 23682
APSTAR-6C               
1 43450U 18041A   25215.85814204 -.00000308  00000+0  00000+0 0  9997
2 43450   0.0400 306.1102 0001194 287.5095 161.9977  1.00270782 26663
GAOFEN-5 01             
1 43461U 18043A   25216.46133810  .00000411  00000+0  95390-4 0  9991
2 43461  98.4092 177.3359 0001850  23.2756 336.8527 14.60205841385467
BANGABANDHUSAT-1        
1 43463U 18044A   25216.56890666 -.00000354  00000+0  00000+0 0  9990
2 43463   0.0289 110.8140 0002577  33.0407 133.4210  1.00270839 26534
GRACE-FO 1              
1 43476U 18047A   25216.54991330  .00003378  00000+0  98642-4 0  9997
2 43476  88.9758 241.6558 0008578 262.5953  97.4325 15.34968873401179
GRACE-FO 2              
1 43477U 18047B   25216.87622119  .00003244  00000+0  94682-4 0  9992
2 43477  88.9758 241.6102 0008582 260.6776  99.3507 15.34970269401223
IRIDIUM 161             
1 43478U 18047C   25216.53505387  .00000189  00000+0  50055-4 0  9994
2 43478  86.4476 220.7294 0002383  83.9238 276.2234 14.43280995379468
IRIDIUM 152             
1 43479U 18047D   25216.49229834 -.00000043  00000+0 -22301-4 0  9994
2 43479  86.3952 220.6079 0002081  85.3914 274.7519 14.34213592377094
IRIDIUM 147             
1 43480U 18047E   25216.49863756  .00000045  00000+0  88329-5 0  9996
2 43480  86.3951 220.6050 0002411  88.0738 272.0734 14.34217742377096
IRIDIUM 110             
1 43481U 18047F   25216.50497972  .00000039  00000+0  67802-5 0  9998
2 43481  86.3953 220.6858 0002461  78.7783 281.3689 14.34217701377082
IRIDIUM 162             
1 43482U 18047G   25216.45942720  .00000178  00000+0  46919-4 0  9998
2 43482  86.4475 220.6558 0002228  81.7989 278.3464 14.43279789379446
GAOFEN-6                
1 43484U 18048A   25216.81209595  .00000697  00000+0  10702-3 0  9993
2 43484  97.8202 285.3036 0013610 114.1937 246.0697 14.76526533386707
LUOJIA-1 01             
1 43485U 18048B   25216.85657966  .00001810  00000+0  21605-3 0  9999
2 43485  97.8410 295.0099 0010739  82.7783 277.4652 14.85422584387200
SES-12                  
1 43488U 18049A   25216.56413998 -.00000261  00000+0  00000+0 0  9998
2 43488   0.0119  23.1798 0000810 203.9596  24.3106  1.00273111 26249
FENGYUN 2H              
1 43491U 18050A   25216.84658336 -.00000123  00000+0  00000+0 0  9999
2 43491   2.2118  82.8903 0002109 114.6014 140.2270  1.00273637 26346
COSMOS 2527 [GLONASS-M] 
1 43508U 18053A   25216.33355116 -.00000010  00000+0  00000+0 0  9990
2 43508  65.3990  84.4900 0006752 223.7621 136.2631  2.13102303 55526
PAKTES 1A               
1 43529U 18056A   25216.87626837  .00003412  00000+0  30073-3 0  9991
2 43529  98.0855 356.2349 0023760  82.2290 278.1627 14.96947118384562
PRSS 1                  
1 43530U 18056B   25216.85735648  .00000820  00000+0  11194-3 0  9995
2 43530  97.8228 287.9380 0001293  83.8755 276.2605 14.81178215381593
BEIDOU-2 IGSO-7         
1 43539U 18057A   25216.28173274 -.00000114  00000+0  00000+0 0  9990
2 43539  55.1673 165.8130 0092954 237.1003 121.0339  1.00296939 25940
TELSTAR 19V             
1 43562U 18059A   25216.09767240 -.00000270  00000+0  00000+0 0  9992
2 43562   0.0285 178.4660 0003265 315.3658 151.2291  1.00271149 25964
GSAT0221 (GALILEO 25)   
1 43564U 18060A   25216.30913383 -.00000089  00000+0  00000+0 0  9999
2 43564  57.2601 350.3388 0002976 269.6279  90.3388  1.70476319 43769
GSAT0222 (GALILEO 26)   
1 43565U 18060B   25214.18194647 -.00000095  00000+0  00000+0 0  9995
2 43565  57.2649 350.3988 0003234 227.7890 132.1844  1.70476075 43772
GSAT0219 (GALILEO 23)   
1 43566U 18060C   25214.98983001 -.00000093  00000+0  00000+0 0  9992
2 43566  57.2637 350.3787 0001978 279.1169  80.8617  1.70476272 43765
GSAT0220 (GALILEO 24)   
1 43567U 18060D   25215.79726861 -.00000091  00000+0  00000+0 0  9990
2 43567  57.2632 350.3575 0002285 270.6259  89.3489  1.70476267 43769
IRIDIUM 160             
1 43569U 18061A   25216.66012144 -.00000001  00000+0 -75855-5 0  9990
2 43569  86.4010 189.0408 0002251  81.1950 278.9501 14.34217206368001
IRIDIUM 166             
1 43570U 18061B   25216.47618603  .00000033  00000+0  47738-5 0  9995
2 43570  86.4005 189.0721 0002210  93.5198 266.6251 14.34217536368003
IRIDIUM 158             
1 43571U 18061C   25216.44447289  .00000029  00000+0  32273-5 0  9996
2 43571  86.4006 189.0952 0002109  84.4761 275.6675 14.34217536367967
IRIDIUM 165             
1 43572U 18061D   25216.46984380  .00000027  00000+0  27553-5 0  9990
2 43572  86.4008 189.1248 0002337  90.0272 270.1192 14.34217502367992
IRIDIUM 155             
1 43573U 18061E   25216.43178689 -.00000033  00000+0 -18779-4 0  9993
2 43573  86.4006 189.0260 0001843  87.8630 272.2777 14.34217322367955
IRIDIUM 154             
1 43574U 18061F   25216.41275937  .00000032  00000+0  42724-5 0  9991
2 43574  86.4007 189.1514 0002287  87.2805 272.8652 14.34216978368002
IRIDIUM 163             
1 43575U 18061G   25216.46350460  .00000258  00000+0  84984-4 0  9995
2 43575  86.4005 189.0556 0002238  82.6442 277.5008 14.34220229367985
IRIDIUM 156             
1 43576U 18061H   25216.85674099 -.00000083  00000+0 -36792-4 0  9998
2 43576  86.4008 188.8987 0001917  93.3033 266.8382 14.34217356368021
IRIDIUM 164             
1 43577U 18061J   25216.41910321  .00000006  00000+0 -47612-5 0  9990
2 43577  86.4009 189.1166 0002276  91.5860 268.5596 14.34217154368014
IRIDIUM 159             
1 43578U 18061K   25216.45715535  .00000262  00000+0  86419-4 0  9995
2 43578  86.4001 189.0441 0002507  84.6378 275.5104 14.34216716367987
